BEIDOU-3 M6             
1 43582U 18062B   23257.18190776 -.00000003  00000+0  00000+0 0  9999
2 43582  54.1760 216.5664 0005217 357.7686   2.1881  1.86229889 34880
BEIDOU-3 M12            
1 43602U 18067A   23257.11811702 -.00000005  00000+0  00000+0 0  9991
2 43602  54.2634 215.2248 0007088  13.2228 346.7548  1.86231594 34368
BEIDOU-3 M11            
1 43603U 18067B   23257.25194352 -.00000003  00000+0  00000+0 0  9990
2 43603  54.2604 215.1858 0004181 358.3276   1.6302  1.86231548 34396
BEIDOU-3 M13            
1 43622U 18072A   23253.98919656  .00000012  00000+0  00000+0 0  9994
2 43622  55.7755  96.2421 0004352 298.5430  61.4988  1.86231730 33847
BEIDOU-3 M14            
1 43623U 18072B   23257.07636656  .00000031  00000+0  00000+0 0  9996
2 43623  55.7797  96.1316 0002850 349.6815  10.4023  1.86231718 33909
BEIDOU-3 M16            
1 43647U 18078A   23257.23900432 -.00000085  00000+0  00000+0 0  9992
2 43647  54.9025 334.9993 0005909   7.8930 352.1753  1.86227457 33410
BEIDOU-3 M15            
1 43648U 18078B   23257.36935374 -.00000084  00000+0  00000+0 0  9999
2 43648  54.8980 334.9988 0002765  19.2967 340.7731  1.86232457 33435
BEIDOU-3 G1             
1 43683U 18085A   23256.68452095 -.00000283  00000+0  00000+0 0  9995
2 43683   1.5333 123.7531 0002976 351.8669 263.2372  1.00276481 17951
COSMOS 2529             
1 43687U 18086A   23257.15119053  .00000018  00000+0  00000+0 0  9992
2 43687  64.3156 226.6872 0011243 262.6402  97.2098  2.13102100 37826
BEIDOU-3 M17            
1 43706U 18093A   23255.36949855 -.00000011  00000+0  00000+0 0  9998
2 43706  54.2592 216.5564 0010230 281.0598  78.7868  1.86232123 32756
BEIDOU-3 M18            
1 43707U 18093B   23255.23555154 -.00000011  00000+0  00000+0 0  9990
2 43707  54.2601 216.5525 0008500 306.3599  53.5236  1.86229943 32749
NAVSTAR 77 (USA 289)    
1 43873U 18109A   23256.65956904  .00000021  00000+0  00000+0 0  9997
2 43873  55.1950 131.9969 0025737 190.7181   7.5689  2.00569399 34860
BEIDOU-3 IGSO-1         
1 44204U 19023A   23257.32603656 -.00000190  00000+0  00000+0 0  9998
2 44204  57.2356  48.1381 0023743 195.0447 347.1393  1.00280028 16264
BEIDOU-2 G8             
1 44231U 19027A   23257.42802493 -.00000250  00000+0  00000+0 0  9990
2 44231   1.9797  81.0846 0006607 132.5234  78.1255  1.00269167 15977
COSMOS 2534             
1 44299U 19030A   23257.11062273  .00000018  00000+0  00000+0 0  9999
2 44299  64.3883 226.6157 0013430 281.7850 181.2218  2.13102039 33474
BEIDOU-3 IGSO-2         
1 44337U 19035A   23256.63115414 -.00000162  00000+0  00000+0 0  9990
2 44337  55.1523 167.7109 0032849 196.7361 334.8660  1.00272106 15560
NAVSTAR 78 (USA 293)    
1 44506U 19056A   23257.47116785 -.00000097  00000+0  00000+0 0  9993
2 44506  55.8226  11.0404 0037239 185.6356 138.1335  2.00566034 29873
BEIDOU-3 M24            
1 44542U 19061A   23256.91804548 -.00000005  00000+0  00000+0 0  9997
2 44542  54.4860 216.7354 0008445 341.0483  18.8794  1.86231575 27037
BEIDOU-3 M23            
1 44543U 19061B   23255.78401559 -.00000010  00000+0  00000+0 0  9993
2 44543  54.4849 216.7429 0005911 324.6095 266.9031  1.86231935 27017
BEIDOU-3 IGSO-3         
1 44709U 19073A   23256.49849756 -.00000137  00000+0  00000+0 0  9994
2 44709  56.5188 291.6549 0035228 190.2100 169.8219  1.00279386 14331
BEIDOU-3 M22            
1 44793U 19078A   23257.30041595 -.00000085  00000+0  00000+0 0  9990
2 44793  54.7508 334.9633 0004774  17.2182 342.8571  1.86232401 25905
BEIDOU-3 M21            
1 44794U 19078B   23255.28315545 -.00000094  00000+0  00000+0 0  9995
2 44794  54.7259 335.0150 0002736   7.6123 352.4440  1.86232842 25865
COSMOS 2544             
1 44850U 19088A   23256.05719905  .00000053  00000+0  00000+0 0  9997
2 44850  65.0808 107.4998 0011246 251.2439 108.7303  2.13102289 29234
BEIDOU-3 M19            
1 44864U 19090A   23256.35970689  .00000029  00000+0  00000+0 0  9999
2 44864  55.7116  96.3492 0015283 275.5478 280.0656  1.86232049 25462
BEIDOU-3 M20            
1 44865U 19090B   23257.33179596  .00000031  00000+0  00000+0 0  9990
2 44865  55.7141  96.3495 0013143 290.8549 286.2822  1.86231989 25461
BEIDOU-3 G2             
1 45344U 20017A   23257.10340819 -.00000144  00000+0  00000+0 0  9993
2 45344   2.0538  16.6627 0003104 161.8838 291.5523  1.00272496 13171
COSMOS 2545             
1 45358U 20018A   23256.25395972 -.00000081  00000+0  00000+0 0  9994
2 45358  64.8408 347.6141 0010255 238.0102 121.9303  2.13102710 27186
BEIDOU-3 G3             
1 45807U 20040A   23256.74133000 -.00000360  00000+0  00000+0 0  9994
2 45807   0.6088 345.6149 0006030 328.8621  55.4568  1.00271416 11972
NAVSTAR 79 (USA 304)    
1 45854U 20041A   23256.61491889 -.00000009  00000+0  00000+0 0  9995
2 45854  55.8912  68.3571 0036473 186.3511 182.4841  2.00563521 23834
GALAXY 30 (G-30)        
1 46114U 20056C   23256.58501263  .00000031  00000+0  00000+0 0  9999
2 46114   0.0212 132.4346 0001892  43.8883 261.5975  1.00273079 11185
COSMOS 2547             
1 46805U 20075A   23256.91213478  .00000017  00000+0  00000+0 0  9996
2 46805  64.6156 226.1815 0008402 244.0482 115.8433  2.13102941 22446
NAVSTAR 80 (USA 309)    
1 46826U 20078A   23256.32412594  .00000016  00000+0  00000+0 0  9996
2 46826  54.3087 251.6987 0036124 194.9186 299.4653  2.00562933 21299
NAVSTAR 81 (USA 319)    
1 48859U 21054A   23257.33990104 -.00000098  00000+0  00000+0 0  9990
2 48859  55.3402  12.8266 0012498 212.1538 118.3037  2.00573356 16557
QZS-1R                  
1 49336U 21096A   23256.58008201 -.00000243  00000+0  00000+0 0  9993
2 49336  35.3705  94.7733 0743547 269.4913 330.7050  1.00290443  6903
GSAT0223 (GALILEO 27)   
1 49809U 21116A   23254.47783885 -.00000104  00000+0  00000+0 0  9991
2 49809  57.2800   8.9075 0003509 182.5037 176.6685  1.70476482 10960
GSAT0224 (GALILEO 28)   
1 49810U 21116B   23257.23371654 -.00000094  00000+0  00000+0 0  9995
2 49810  57.2810   8.8320 0002835 175.0241 187.9788  1.70476495 11032
COSMOS 2557             
1 52984U 22075A   23255.19772425 -.00000089  00000+0  00000+0 0  9994
2 52984  64.7580 349.8091 0012050 275.3319  84.5640  2.13102432  9196
COSMOS 2559             
1 54031U 22130A   23256.54751789 -.00000081  00000+0  00000+0 0  9993
2 54031  64.7289 349.8895 0007284 218.2584 141.7275  2.13101663  7218
COSMOS 2564             
1 54377U 22161A   23256.74058225  .00000017  00000+0  00000+0 0  9995
2 54377  64.7564 226.2419 0010707 226.1030 133.7872  2.13102200  6160
NAVSTAR 82 (USA 343)    
1 55268U 23009A   23256.08302088 -.00000024  00000+0  00000+0 0  9992
2 55268  55.0881 188.0713 0004460  90.9394  92.8330  2.00555282  5022
BEIDOU-3 G4             
1 56564U 23066A   23256.53554646 -.00000120  00000+0  00000+0 0  9991
2 56564   2.8234 288.7591 0006674 214.6775 201.6318  1.00273285  1305
IRNSS-1J (NVS-01)       
1 56759U 23076A   23256.75785745 -.00000349  00000+0  00000+0 0  9991
2 56759   4.7173 271.8891 0006208 336.4198 146.4813  1.00269973  1018
